start=new Date('2022-02-09T00:00:00.000Z').valueOf();
sats=[{"DECAY_DATE":null,"OBJECT_NAME":"STARLINK-1515","MEAN_ELEMENT_THEORY":"SGP4","RA_OF_ASC_NODE":"307.8998","REF_FRAME":"TEME","TIME_SYSTEM":"UTC","ARG_OF_PERICENTER":"65.3705","FILE":"3295096","INCLINATION":"53.0512","MEAN_ANOMALY":"294.7461","SITE":"AFETR","EPOCH":"2022-02-08T03:38:21.558624","TLE_LINE1":"1 46065U 20055AQ  22039.15163841 -.00001218  00000-0 -62889-4 0  9999","LAUNCH_DATE":"2020-08-07","EPHEMERIS_TYPE":"0","NORAD_CAT_ID":"46065","CENTER_NAME":"EARTH","ELEMENT_SET_NO":"999","OBJECT_TYPE":"PAYLOAD","ECCENTRICITY":"0.00017010","TLE_LINE2":"2 46065  53.0512 307.8998 0001701  65.3705 294.7461 15.06376276 84635","RCS_SIZE":"LARGE","APOAPSIS":"548.464","SEMIMAJOR_AXIS":"6925.421","MEAN_MOTION_DOT":"-0.00001218","CLASSIFICATION_TYPE":"U","BSTAR":"-0.00006288900000","MEAN_MOTION_DDOT":"0.0000000000000","REV_AT_EPOCH":"8463","PERIOD":"95.594","GP_ID":"195546149","COUNTRY_CODE":"US","MEAN_MOTION":"15.06376276","OBJECT_ID":"2020-055AQ","PERIAPSIS":"546.108"},{"REF_FRAME":"TEME","RA_OF_ASC_NODE":"307.8888","TIME_SYSTEM":"UTC","DECAY_DATE":null,"OBJECT_NAME":"STARLINK-1525","MEAN_ELEMENT_THEORY":"SGP4","EPOCH":"2022-02-08T03:45:01.577664","SITE":"AFETR","EPHEMERIS_TYPE":"0","NORAD_CAT_ID":"46066","TLE_LINE1":"1 46066U 20055AR  22039.15626826  .00003696  00000-0  26704-3 0  9992","LAUNCH_DATE":"2020-08-07","FILE":"3295096","ARG_OF_PERICENTER":"59.6486","MEAN_ANOMALY":"300.4670","INCLINATION":"53.0542","ECCENTRICITY":"0.00016840","OBJECT_TYPE":"PAYLOAD","ELEMENT_SET_NO":"999","CENTER_NAME":"EARTH","RCS_SIZE":"LARGE","APOAPSIS":"548.443","MEAN_MOTION_DOT":"0.00003696","CLASSIFICATION_TYPE":"U","SEMIMAJOR_AXIS":"6925.412","TLE_LINE2":"2 46066  53.0542 307.8888 0001684  59.6486 300.4670 15.06379300 84648","PERIOD":"95.593","BSTAR":"0.00026704000000","MEAN_MOTION_DDOT":"0.0000000000000","REV_AT_EPOCH":"8464","MEAN_MOTION":"15.06379300","COUNTRY_CODE":"US","GP_ID":"195546387","OBJECT_ID":"2020-055AR","PERIAPSIS":"546.111"},{"PERIAPSIS":"545.993","OBJECT_ID":"2020-055AS","GP_ID":"195578620","MEAN_MOTION":"15.06397961","COUNTRY_CODE":"US","MEAN_MOTION_DDOT":"0.0000000000000","REV_AT_EPOCH":"8420","BSTAR":"0.00071041000000","PERIOD":"95.592","TLE_LINE2":"2 46067  53.0537 305.1903 0001771  62.9143 297.2027 15.06397961 84200","CLASSIFICATION_TYPE":"U","MEAN_MOTION_DOT":"0.00010315","SEMIMAJOR_AXIS":"6925.355","APOAPSIS":"548.446","RCS_SIZE":"LARGE","ELEMENT_SET_NO":"999","CENTER_NAME":"EARTH","OBJECT_TYPE":"PAYLOAD","ECCENTRICITY":"0.00017710","MEAN_ANOMALY":"297.2027","INCLINATION":"53.0537","FILE":"3295289","ARG_OF_PERICENTER":"62.9143","EPHEMERIS_TYPE":"0","NORAD_CAT_ID":"46067","TLE_LINE1":"1 46067U 20055AS  22039.75707445  .00010315  00000-0  71041-3 0  9996","LAUNCH_DATE":"2020-08-07","SITE":"AFETR","EPOCH":"2022-02-08T18:10:11.232480","OBJECT_NAME":"STARLINK-1529","MEAN_ELEMENT_THEORY":"SGP4","DECAY_DATE":null,"TIME_SYSTEM":"UTC","REF_FRAME":"TEME","RA_OF_ASC_NODE":"305.1903"},{"OBJECT_ID":"2020-055AT","PERIAPSIS":"546.251","GP_ID":"195545897","MEAN_MOTION":"15.06385879","COUNTRY_CODE":"US","BSTAR":"-0.00018865000000","MEAN_MOTION_DDOT":"0.0000000000000","REV_AT_EPOCH":"8469","PERIOD":"95.593","TLE_LINE2":"2 46068  53.0544 306.6192 0001452  60.9438 299.1696 15.06385879 84697","APOAPSIS":"548.262","RCS_SIZE":"LARGE","MEAN_MOTION_DOT":"-0.00003089","CLASSIFICATION_TYPE":"U","SEMIMAJOR_AXIS":"6925.392","ELEMENT_SET_NO":"999","CENTER_NAME":"EARTH","OBJECT_TYPE":"PAYLOAD","ECCENTRICITY":"0.00014520","FILE":"3295096","ARG_OF_PERICENTER":"60.9438","MEAN_ANOMALY":"299.1696","INCLINATION":"53.0544","SITE":"AFETR","EPOCH":"2022-02-08T10:28:22.210752","NORAD_CAT_ID":"46068","EPHEMERIS_TYPE":"0","TLE_LINE1":"1 46068U 20055AT  22039.43636818 -.00003089  00000-0 -18865-3 0  9994","LAUNCH_DATE":"2020-08-07","DECAY_DATE":null,"OBJECT_NAME":"STARLINK-1532","MEAN_ELEMENT_THEORY":"SGP4","REF_FRAME":"TEME","RA_OF_ASC_NODE":"306.6192","TIME_SYSTEM":"UTC"},{"PERIAPSIS":"546.222","OBJECT_ID":"2020-055AU","GP_ID":"195546650","COUNTRY_CODE":"US","MEAN_MOTION":"15.06383629","REV_AT_EPOCH":"8465","MEAN_MOTION_DDOT":"0.0000000000000","BSTAR":"0.00006064000000","PERIOD":"95.593","TLE_LINE2":"2 46069  53.0544 308.0416 0001504  68.8990 291.2159 15.06383629 84655","SEMIMAJOR_AXIS":"6925.399","CLASSIFICATION_TYPE":"U","MEAN_MOTION_DOT":"0.00000621","RCS_SIZE":"LARGE","APOAPSIS":"548.305","CENTER_NAME":"EARTH","ELEMENT_SET_NO":"999","ECCENTRICITY":"0.00015040","OBJECT_TYPE":"PAYLOAD","INCLINATION":"53.0544","MEAN_ANOMALY":"291.2159","ARG_OF_PERICENTER":"68.8990","FILE":"3295096","LAUNCH_DATE":"2020-08-07","TLE_LINE1":"1 46069U 20055AU  22039.11939815  .00000621  00000-0  60640-4 0  9999","EPHEMERIS_TYPE":"0","NORAD_CAT_ID":"46069","SITE":"AFETR","EPOCH":"2022-02-08T02:51:56.000160","OBJECT_NAME":"STARLINK-1533","MEAN_ELEMENT_THEORY":"SGP4","DECAY_DATE":null,"TIME_SYSTEM":"UTC","RA_OF_ASC_NODE":"308.0416","REF_FRAME":"TEME"},{"MEAN_ELEMENT_THEORY":"SGP4","OBJECT_NAME":"STARLINK-1536","DECAY_DATE":null,"TIME_SYSTEM":"UTC","REF_FRAME":"TEME","RA_OF_ASC_NODE":"306.4839","MEAN_ANOMALY":"297.7524","INCLINATION":"53.0543","FILE":"3295309","ARG_OF_PERICENTER":"62.3650","EPHEMERIS_TYPE":"0","NORAD_CAT_ID":"46070","LAUNCH_DATE":"2020-08-07","TLE_LINE1":"1 46070U 20055AV  22039.46587700  .00000608  00000-0  59743-4 0  9998","EPOCH":"2022-02-08T11:10:51.772800","SITE":"AFETR","ELEMENT_SET_NO":"999","CENTER_NAME":"EARTH","ECCENTRICITY":"0.00018230","OBJECT_TYPE":"PAYLOAD","TLE_LINE2":"2 46070  53.0543 306.4839 0001823  62.3650 297.7524 15.06389455 84169","CLASSIFICATION_TYPE":"U","MEAN_MOTION_DOT":"0.00000608","SEMIMAJOR_AXIS":"6925.381","RCS_SIZE":"LARGE","APOAPSIS":"548.508","REV_AT_EPOCH":"8416","MEAN_MOTION_DDOT":"0.0000000000000","BSTAR":"0.00005974300000","PERIOD":"95.593","GP_ID":"195579155","MEAN_MOTION":"15.06389455","COUNTRY_CODE":"US","PERIAPSIS":"545.983","OBJECT_ID":"2020-055AV"},{"PERIAPSIS":"546.202","OBJECT_ID":"2020-055AW","GP_ID":"195545651","MEAN_MOTION":"15.06381245","COUNTRY_CODE":"US","MEAN_MOTION_DDOT":"0.0000000000000","REV_AT_EPOCH":"8466","BSTAR":"0.00007699700000","PERIOD":"95.593","TLE_LINE2":"2 46071  53.0541 307.6010 0001544  61.7953 298.3192 15.06381245 84663","MEAN_MOTION_DOT":"0.00000865","CLASSIFICATION_TYPE":"U","SEMIMAJOR_AXIS":"6925.406","APOAPSIS":"548.340","RCS_SIZE":"LARGE","ELEMENT_SET_NO":"999","CENTER_NAME":"EARTH","OBJECT_TYPE":"PAYLOAD","ECCENTRICITY":"0.00015440","MEAN_ANOMALY":"298.3192","INCLINATION":"53.0541","FILE":"3295096","ARG_OF_PERICENTER":"61.7953","NORAD_CAT_ID":"46071","EPHEMERIS_TYPE":"0","LAUNCH_DATE":"2020-08-07","TLE_LINE1":"1 46071U 20055AW  22039.21893375  .00000865  00000-0  76997-4 0  9995","SITE":"AFETR","EPOCH":"2022-02-08T05:15:15.876000","MEAN_ELEMENT_THEORY":"SGP4","OBJECT_NAME":"STARLINK-1538","DECAY_DATE":null,"TIME_SYSTEM":"UTC","REF_FRAME":"TEME","RA_OF_ASC_NODE":"307.6010"},{"BSTAR":"0.00009872700000","REV_AT_EPOCH":"8468","MEAN_MOTION_DDOT":"0.0000000000000","PERIOD":"95.593","GP_ID":"195545397","MEAN_MOTION":"15.06380296","COUNTRY_CODE":"US","OBJECT_ID":"2020-055AX","PERIAPSIS":"546.047","DECAY_DATE":null,"MEAN_ELEMENT_THEORY":"SGP4","OBJECT_NAME":"STARLINK-1539","REF_FRAME":"TEME","RA_OF_ASC_NODE":"306.5950","TIME_SYSTEM":"UTC","FILE":"3295096","ARG_OF_PERICENTER":"52.5433","MEAN_ANOMALY":"307.5717","INCLINATION":"53.0576","SITE":"AFETR","EPOCH":"2022-02-08T10:37:40.274400","EPHEMERIS_TYPE":"0","NORAD_CAT_ID":"46072","LAUNCH_DATE":"2020-08-07","TLE_LINE1":"1 46072U 20055AX  22039.44282725  .00001188  00000-0  98727-4 0  9996","ELEMENT_SET_NO":"999","CENTER_NAME":"EARTH","OBJECT_TYPE":"PAYLOAD","ECCENTRICITY":"0.00017720","TLE_LINE2":"2 46072  53.0576 306.5950 0001772  52.5433 307.5717 15.06380296 84680","APOAPSIS":"548.501","RCS_SIZE":"LARGE","MEAN_MOTION_DOT":"0.00001188","CLASSIFICATION_TYPE":"U","SEMIMAJOR_AXIS":"6925.409"},{"MEAN_MOTION":"15.06453128","COUNTRY_CODE":"US","GP_ID":"195578924","PERIOD":"95.589","BSTAR":"-0.00116600000000","REV_AT_EPOCH":"8420","MEAN_MOTION_DDOT":"0.0000000000000","OBJECT_ID":"2020-055AY","PERIAPSIS":"545.695","EPOCH":"2022-02-08T17:22:21.910944","SITE":"AFETR","NORAD_CAT_ID":"46073","EPHEMERIS_TYPE":"0","LAUNCH_DATE":"2020-08-07","TLE_LINE1":"1 46073U 20055AY  22039.72386471 -.00017632  00000-0 -11660-2 0  9993","FILE":"3295278","ARG_OF_PERICENTER":"55.6866","MEAN_ANOMALY":"304.4309","INCLINATION":"53.0551","REF_FRAME":"TEME","RA_OF_ASC_NODE":"305.3447","TIME_SYSTEM":"UTC","DECAY_DATE":null,"OBJECT_NAME":"STARLINK-1542","MEAN_ELEMENT_THEORY":"SGP4","APOAPSIS":"548.406","RCS_SIZE":"LARGE","MEAN_MOTION_DOT":"-0.00017632","CLASSIFICATION_TYPE":"U","SEMIMAJOR_AXIS":"6925.186","TLE_LINE2":"2 46073  53.0551 305.3447 0001957  55.6866 304.4309 15.06453128 84207","OBJECT_TYPE":"PAYLOAD","ECCENTRICITY":"0.00019570","ELEMENT_SET_NO":"999","CENTER_NAME":"EARTH"},{"CENTER_NAME":"EARTH","ELEMENT_SET_NO":"999","OBJECT_TYPE":"PAYLOAD","ECCENTRICITY":"0.00018720","TLE_LINE2":"2 46074  53.0548 306.5904 0001872  46.8260 313.2886 15.06393117 84682","SEMIMAJOR_AXIS":"6925.370","CLASSIFICATION_TYPE":"U","MEAN_MOTION_DOT":"0.00001431","RCS_SIZE":"LARGE","APOAPSIS":"548.531","OBJECT_NAME":"STARLINK-1549","MEAN_ELEMENT_THEORY":"SGP4","DECAY_DATE":null,"TIME_SYSTEM":"UTC","RA_OF_ASC_NODE":"306.5904","REF_FRAME":"TEME","INCLINATION":"53.0548","MEAN_ANOMALY":"313.2886","ARG_OF_PERICENTER":"46.8260","FILE":"3295096","LAUNCH_DATE":"2020-08-07","TLE_LINE1":"1 46074U 20055AZ  22039.44375810  .00001431  00000-0  11499-3 0  9997","NORAD_CAT_ID":"46074","EPHEMERIS_TYPE":"0","EPOCH":"2022-02-08T10:39:00.699840","SITE":"AFETR","PERIAPSIS":"545.938","OBJECT_ID":"2020-055AZ","MEAN_MOTION_DDOT":"0.0000000000000","REV_AT_EPOCH":"8468","BSTAR":"0.00011499000000","PERIOD":"95.593","GP_ID":"195546388","COUNTRY_CODE":"US","MEAN_MOTION":"15.06393117"}];
